NORAD_CAT_ID,OBJECT_NAME,OBJECT_TYPE,EPOCH,MEAN_MOTION,ECCENTRICITY,INCLINATION,RA_OF_ASC_NODE,ARG_OF_PERICENTER,MEAN_ANOMALY,BSTAR,MEAN_MOTION_DOT,MEAN_MOTION_DDOT,TLE_LINE0,TLE_LINE1,TLE_LINE2,SEMIMAJOR_AXIS,PERIOD,APOGEE,PERIGEE,DECAYED
55757.0,STARLINK-5544,PAYLOAD,2023-11-21 20:44:03,14.98325262,0.0002419,69.9986,199.3733,268.3473,91.7409,3.8374e-05,3.65e-06,0.0,0 STARLINK-5544,1 55757U 23028S   23325.86392409  .00000365  00000-0  38374-4 0  9993,2 55757  69.9986 199.3733 0002419 268.3473  91.7409 14.98325262 40390,6950.208,96.107,573.754,570.391,0.0
55757.0,STARLINK-5544,PAYLOAD,2023-11-22 01:32:26,14.98331858,0.0002221,69.999,198.8688,268.8,91.2905,4.665e-05,4.64e-06,0.0,0 STARLINK-5544,1 55757U 23028S   23326.06420000  .00000464  00000-0  46650-4 0  9991,2 55757  69.9990 198.8688 0002221 268.8000  91.2905 14.98331858 40428,6950.187,96.107,573.596,570.509,0.0
55757.0,STARLINK-5544,PAYLOAD,2023-11-22 19:09:55,14.98336226,0.0002305,69.9991,197.0166,269.2837,90.8058,4.6451e-05,4.61e-06,0.0,0 STARLINK-5544,1 55757U 23028S   23326.79855483  .00000461  00000-0  46451-4 0  9994,2 55757  69.9991 197.0166 0002305 269.2837  90.8058 14.98336226 40537,6950.174,96.107,573.641,570.437,0.0
55757.0,STARLINK-5544,PAYLOAD,2023-11-22 20:46:03,14.9833592,0.000237,69.999,196.8493,262.9359,97.153,4.8026e-05,4.8e-06,0.0,0 STARLINK-5544,1 55757U 23028S   23326.86531412  .00000480  00000-0  48026-4 0  9996,2 55757  69.9990 196.8493 0002370 262.9359  97.1530 14.98335920 40543,6950.175,96.107,573.687,570.392,0.0
55757.0,STARLINK-5544,PAYLOAD,2023-11-23 01:34:26,14.98340545,0.0002287,69.9991,196.3446,260.7455,99.3445,6.8557e-05,7.25e-06,0.0,0 STARLINK-5544,1 55757U 23028S   23327.06558951  .00000725  00000-0  68557-4 0  9999,2 55757  69.9991 196.3446 0002287 260.7455  99.3445 14.98340545 40578,6950.16,96.106,573.615,570.436,0.0
55757.0,STARLINK-5544,PAYLOAD,2023-11-23 19:11:56,14.98321379,0.0002228,70.0008,194.4973,244.8194,115.2734,-1.1961e-05,-2.36e-06,0.0,0 STARLINK-5544,1 55757U 23028S   23327.79996376 -.00000236  00000-0 -11961-4 0  9992,2 55757  70.0008 194.4973 0002228 244.8194 115.2734 14.98321379 40687,6950.22,96.108,573.633,570.536,0.0
55757.0,STARLINK-5544,PAYLOAD,2023-11-23 22:24:13,14.98319505,0.000228,69.9998,194.1598,238.9278,121.1657,-5.6122e-05,-7.62e-06,0.0,0 STARLINK-5544,1 55757U 23028S   23327.93348673 -.00000762  00000-0 -56122-4 0  9991,2 55757  69.9998 194.1598 0002280 238.9278 121.1657 14.98319505 40708,6950.225,96.108,573.675,570.506,0.0
55757.0,STARLINK-5544,PAYLOAD,2023-11-24 01:36:29,14.9832079,0.0002532,69.9983,193.8198,266.9453,93.1416,-0.00012033,-1.528e-05,0.0,0 STARLINK-5544,1 55757U 23028S   23328.06700893 -.00001528  00000-0 -12033-3 0  9995,2 55757  69.9983 193.8198 0002532 266.9453  93.1416 14.98320790 40721,6950.221,96.108,573.846,570.327,0.0
55757.0,STARLINK-5544,PAYLOAD,2023-11-24 19:13:58,14.9832843,0.0002548,69.9982,191.9669,272.6216,87.4652,-9.3084e-05,-1.203e-05,0.0,0 STARLINK-5544,1 55757U 23028S   23328.80136681 -.00001203  00000-0 -93084-4 0  9991,2 55757  69.9982 191.9669 0002548 272.6216  87.4652 14.98328430 40839,6950.198,96.107,573.834,570.292,0.0
55757.0,STARLINK-5544,PAYLOAD,2023-11-24 22:26:13,14.98345184,0.0001598,69.9995,191.6311,260.0948,100.0031,-0.00031077,-3.8e-05,0.0,0 STARLINK-5544,1 55757U 23028S   23328.93488260 -.00003800  00000-0 -31077-3 0  9996,2 55757  69.9995 191.6311 0001598 260.0948 100.0031 14.98345184 40851,6950.146,96.106,573.122,570.9,0.0
55757.0,STARLINK-5544,PAYLOAD,2023-11-25 01:38:30,14.9833023,0.0001775,69.9995,191.2943,256.0143,104.0818,-5.4175e-05,-7.39e-06,0.0,0 STARLINK-5544,1 55757U 23028S   23329.06840503 -.00000739  00000-0 -54175-4 0  9996,2 55757  69.9995 191.2943 0001775 256.0143 104.0818 14.98330230 40872,6950.192,96.107,573.291,570.824,0.0
55757.0,STARLINK-5544,PAYLOAD,2023-11-25 22:28:13,14.9833881,0.0001581,70.0,189.1064,256.7155,103.3827,0.00031845,3.71e-05,0.0,0 STARLINK-5544,1 55757U 23028S   23329.93626698  .00003710  00000-0  31845-3 0  9997,2 55757  70.0000 189.1064 0001581 256.7155 103.3827 14.98338810 41007,6950.166,96.106,573.129,570.932,0.0
55757.0,STARLINK-5544,PAYLOAD,2023-11-26 01:40:29,14.98338863,0.0001479,70.0004,188.7705,249.463,110.637,0.00032852,3.83e-05,0.0,0 STARLINK-5544,1 55757U 23028S   23330.06978605  .00003830  00000-0  32852-3 0  9993,2 55757  70.0004 188.7705 0001479 249.4630 110.6370 14.98338863 41025,6950.165,96.106,573.058,571.003,0.0
55757.0,STARLINK-5544,PAYLOAD,2023-11-26 19:17:59,14.98327089,0.0002292,69.9989,186.9179,263.4933,96.5965,-8.4139e-05,-1.097e-05,0.0,0 STARLINK-5544,1 55757U 23028S   23330.80416195 -.00001097  00000-0 -84139-4 0  9997,2 55757  69.9989 186.9179 0002292 263.4933  96.5965 14.98327089 41137,6950.202,96.107,573.66,570.474,0.0
55757.0,STARLINK-5544,PAYLOAD,2023-11-26 22:30:16,14.98319124,0.0001914,69.9997,186.5813,246.7834,113.3123,-0.00014316,-1.8e-05,0.0,0 STARLINK-5544,1 55757U 23028S   23330.93768849 -.00001800  00000-0 -14316-3 0  9998,2 55757  69.9997 186.5813 0001914 246.7834 113.3123 14.98319124 41158,6950.227,96.108,573.422,570.761,0.0
55757.0,STARLINK-5544,PAYLOAD,2023-11-27 00:06:24,14.98322316,0.0002172,69.999,186.4124,286.6387,73.4533,-8.99e-05,-1.165e-05,0.0,0 STARLINK-5544,1 55757U 23028S   23331.00444753 -.00001165  00000-0 -89900-4 0  9998,2 55757  69.9990 186.4124 0002172 286.6387  73.4533 14.98322316 41167,6950.217,96.107,573.591,570.572,0.0
55757.0,STARLINK-5544,PAYLOAD,2023-11-27 19:20:00,14.9833348,0.0002183,69.999,184.3926,269.5669,90.524,-0.0002317,-2.857e-05,0.0,0 STARLINK-5544,1 55757U 23028S   23331.80556390 -.00002857  00000-0 -23170-3 0  9992,2 55757  69.9990 184.3926 0002183 269.5669  90.5240 14.98333480 41281,6950.182,96.107,573.564,570.53,0.0
55757.0,STARLINK-5544,PAYLOAD,2023-11-27 22:32:16,14.98337128,0.0002146,69.9987,184.0548,269.332,90.7593,-0.00019554,-2.426e-05,0.0,0 STARLINK-5544,1 55757U 23028S   23331.93908015 -.00002426  00000-0 -19554-3 0  9994,2 55757  69.9987 184.0548 0002146 269.3320  90.7593 14.98337128 41304,6950.171,96.107,573.527,570.544,0.0
55757.0,STARLINK-5544,PAYLOAD,2023-11-28 14:33:37,14.98320139,0.0002541,69.9986,182.372,273.4962,86.5906,0.00014647,1.655e-05,0.0,0 STARLINK-5544,1 55757U 23028S   23332.60667937  .00001655  00000-0  14647-3 0  9993,2 55757  69.9986 182.3720 0002541 273.4962  86.5906 14.98320139 41409,6950.223,96.108,573.854,570.322,0.0
55757.0,STARLINK-5544,PAYLOAD,2023-11-28 19:22:01,14.98320477,0.0002483,69.999,181.8668,272.6787,87.4088,0.00017482,1.993e-05,0.0,0 STARLINK-5544,1 55757U 23028S   23332.80695948  .00001993  00000-0  17482-3 0  9993,2 55757  69.9990 181.8668 0002483 272.6787  87.4088 14.98320477 41439,6950.222,96.108,573.813,570.362,0.0
55757.0,STARLINK-5544,PAYLOAD,2023-11-28 22:34:17,14.98323919,0.0002327,69.9991,181.5301,271.2739,88.8154,0.00017076,1.945e-05,0.0,0 STARLINK-5544,1 55757U 23028S   23332.94047795  .00001945  00000-0  17076-3 0  9995,2 55757  69.9991 181.5301 0002327 271.2739  88.8154 14.98323919 41455,6950.212,96.107,573.694,570.459,0.0
55757.0,STARLINK-5544,PAYLOAD,2023-11-29 14:35:37,14.98318477,0.0002149,69.9993,179.8474,272.0874,88.0039,0.00026348,3.051e-05,0.0,0 STARLINK-5544,1 55757U 23028S   23333.60807842  .00003051  00000-0  26348-3 0  9998,2 55757  69.9993 179.8474 0002149 272.0874  88.0039 14.98318477 41557,6950.229,96.108,573.587,570.6,0.0
55757.0,STARLINK-5544,PAYLOAD,2023-11-29 19:24:02,14.9833104,0.0002376,69.9991,179.3425,270.5422,89.5465,4.4529e-05,4.38e-06,0.0,0 STARLINK-5544,1 55757U 23028S   23333.80835782  .00000438  00000-0  44529-4 0  9992,2 55757  69.9991 179.3425 0002376 270.5422  89.5465 14.98331040 41583,6950.19,96.107,573.706,570.403,0.0
55757.0,STARLINK-5544,PAYLOAD,2023-11-30 19:26:03,14.98330989,0.0002056,69.9998,176.8188,260.3983,99.6944,-1.0413e-05,-2.17e-06,0.0,0 STARLINK-5544,1 55757U 23028S   23334.80975784 -.00000217  00000-0 -10413-4 0  9992,2 55757  69.9998 176.8188 0002056 260.3983  99.6944 14.98330989 41734,6950.19,96.107,573.484,570.626,0.0
55757.0,STARLINK-5544,PAYLOAD,2023-12-01 19:28:03,14.98332883,0.0001933,69.9995,174.2941,247.3035,112.7919,7.0657e-06,-9e-08,0.0,0 STARLINK-5544,1 55757U 23028S   23335.81115460 -.00000009  00000-0  70657-5 0  9996,2 55757  69.9995 174.2941 0001933 247.3035 112.7919 14.98332883 41886,6950.184,96.107,573.392,570.706,0.0
55757.0,STARLINK-5544,PAYLOAD,2023-12-01 22:40:19,14.98333676,0.0002171,69.9988,173.9574,264.3651,95.7261,1.3582e-05,6.9e-07,0.0,0 STARLINK-5544,1 55757U 23028S   23335.94467428  .00000069  00000-0  13582-4 0  9992,2 55757  69.9988 173.9574 0002171 264.3651  95.7261 14.98333676 41908,6950.182,96.107,573.555,570.538,0.0
55757.0,STARLINK-5544,PAYLOAD,2023-12-02 14:41:40,14.98330692,0.0002332,69.9988,172.2732,271.1691,88.9201,2.898e-05,2.53e-06,0.0,0 STARLINK-5544,1 55757U 23028S   23336.61227410  .00000253  00000-0  28980-4 0  9995,2 55757  69.9988 172.2732 0002332 271.1691  88.9201 14.98330692 42000,6950.191,96.107,573.677,570.435,0.0
55757.0,STARLINK-5544,PAYLOAD,2023-12-02 19:30:04,14.98330588,0.0002231,69.9987,171.768,264.2868,95.8036,2.1582e-05,1.65e-06,0.0,0 STARLINK-5544,1 55757U 23028S   23336.81255382  .00000165  00000-0  21582-4 0  9999,2 55757  69.9987 171.7680 0002231 264.2868  95.8036 14.98330588 42032,6950.191,96.107,573.607,570.505,0.0
55757.0,STARLINK-5544,PAYLOAD,2023-12-02 22:42:20,14.9833204,0.0002115,69.9984,171.4311,258.437,101.6552,-1.6419e-05,-2.89e-06,0.0,0 STARLINK-5544,1 55757U 23028S   23336.94607374 -.00000289  00000-0 -16419-4 0  9997,2 55757  69.9984 171.4311 0002115 258.4370 101.6552 14.98332040 42057,6950.187,96.107,573.522,570.582,0.0
55757.0,STARLINK-5544,PAYLOAD,2023-12-03 14:43:41,14.98326913,0.0001864,69.9992,169.7488,249.0535,111.0424,-4.6554e-05,-6.48e-06,0.0,0 STARLINK-5544,1 55757U 23028S   23337.61367919 -.00000648  00000-0 -46554-4 0  9992,2 55757  69.9992 169.7488 0001864 249.0535 111.0424 14.98326913 42156,6950.202,96.107,573.363,570.772,0.0
